STARLINK-31585          
1 59608U 24080H   26068.26676644 -.00007743  00000+0 -27197-3 0  9996
2 59608  43.0022  36.3479 0003717 254.4766 105.5675 15.27590267104520
FLOCK 4G-3              
1 62639U 25009AG  26068.80174065  .00011494  00000+0  43389-3 0  9993
2 62639  97.4062 151.4068 0001320 293.2042  66.9058 15.27179310 63727
